[{"OBJECT_NAME":"CUTE-1.7+APD II (CO-65)","OBJECT_ID":"2008-021C","EPOCH":"2026-03-15T05:15:59.698944","MEAN_MOTION":15.08460261,"ECCENTRICITY":0.00089849,"INCLINATION":97.8207,"RA_OF_ASC_NODE":53.7902,"ARG_OF_PERICENTER":0.4138,"MEAN_ANOMALY":359.7095,"EPHEMERIS_TYPE":0,"CLASSIFICATION_TYPE":"U","NORAD_CAT_ID":32785,"ELEMENT_SET_NO":999,"REV_AT_EPOCH":97102,"BSTAR":0.00051149152,"MEAN_MOTION_DOT":7.912e-5,"MEAN_MOTION_DDOT":0},{"OBJECT_NAME":"SEEDS II (CO-66)","OBJECT_ID":"2008-021J","EPOCH":"2026-03-14T23:01:46.562880","MEAN_MOTION":15.29337445,"ECCENTRICITY":6.41e-5,"INCLINATION":97.7514,"RA_OF_ASC_NODE":67.6101,"ARG_OF_PERICENTER":328.694,"MEAN_ANOMALY":31.4261,"EPHEMERIS_TYPE":0,"CLASSIFICATION_TYPE":"U","NORAD_CAT_ID":32791,"ELEMENT_SET_NO":999,"REV_AT_EPOCH":97287,"BSTAR":0.00086115435,"MEAN_MOTION_DOT":0.00024478,"MEAN_MOTION_DDOT":0},{"OBJECT_NAME":"YUBILEINY (RS30)","OBJECT_ID":"2008-025A","EPOCH":"2026-03-15T06:15:39.282912","MEAN_MOTION":12.43176218,"ECCENTRICITY":0.00197406,"INCLINATION":82.5006,"RA_OF_ASC_NODE":53.8559,"ARG_OF_PERICENTER":153.1564,"MEAN_ANOMALY":207.0542,"EPHEMERIS_TYPE":0,"CLASSIFICATION_TYPE":"U","NORAD_CAT_ID":32953,"ELEMENT_SET_NO":999,"REV_AT_EPOCH":80802,"BSTAR":0.00032359336,"MEAN_MOTION_DOT":5.5e-7,"MEAN_MOTION_DDOT":0},{"OBJECT_NAME":"KKS-1 (KISEKI)","OBJECT_ID":"2009-002H","EPOCH":"2026-03-15T04:48:50.562144","MEAN_MOTION":14.8285282,"ECCENTRICITY":0.00066823,"INCLINATION":98.1184,"RA_OF_ASC_NODE":355.1795,"ARG_OF_PERICENTER":229.0383,"MEAN_ANOMALY":131.0252,"EPHEMERIS_TYPE":0,"CLASSIFICATION_TYPE":"U","NORAD_CAT_ID":33499,"ELEMENT_SET_NO":999,"REV_AT_EPOCH":92226,"BSTAR":0.00023637016,"MEAN_MOTION_DOT":1.859e-5,"MEAN_MOTION_DDOT":0},{"OBJECT_NAME":"SWISSCUBE","OBJECT_ID":"2009-051B","EPOCH":"2026-03-14T22:50:27.128832","MEAN_MOTION":14.62275636,"ECCENTRICITY":0.00074228,"INCLINATION":98.4097,"RA_OF_ASC_NODE":340.1877,"ARG_OF_PERICENTER":137.4075,"MEAN_ANOMALY":222.7702,"EPHEMERIS_TYPE":0,"CLASSIFICATION_TYPE":"U","NORAD_CAT_ID":35932,"ELEMENT_SET_NO":999,"REV_AT_EPOCH":87538,"BSTAR":0.00028020867,"MEAN_MOTION_DOT":1.364e-5,"MEAN_MOTION_DDOT":0},{"OBJECT_NAME":"BEESAT-1","OBJECT_ID":"2009-051C","EPOCH":"2026-03-15T04:29:08.420928","MEAN_MOTION":14.61546841,"ECCENTRICITY":0.000568,"INCLINATION":98.4025,"RA_OF_ASC_NODE":340.2563,"ARG_OF_PERICENTER":147.2,"MEAN_ANOMALY":212.9554,"EPHEMERIS_TYPE":0,"CLASSIFICATION_TYPE":"U","NORAD_CAT_ID":35933,"ELEMENT_SET_NO":999,"REV_AT_EPOCH":87545,"BSTAR":0.00021833564,"MEAN_MOTION_DOT":1.035e-5,"MEAN_MOTION_DDOT":0},{"OBJECT_NAME":"ITUPSAT1","OBJECT_ID":"2009-051E","EPOCH":"2026-03-15T05:35:25.875168","MEAN_MOTION":14.60280671,"ECCENTRICITY":0.00076472,"INCLINATION":98.4111,"RA_OF_ASC_NODE":339.5922,"ARG_OF_PERICENTER":160.9379,"MEAN_ANOMALY":199.2108,"EPHEMERIS_TYPE":0,"CLASSIFICATION_TYPE":"U","NORAD_CAT_ID":35935,"ELEMENT_SET_NO":999,"REV_AT_EPOCH":87502,"BSTAR":0.00020461655,"MEAN_MOTION_DOT":9.39e-6,"MEAN_MOTION_DDOT":0},{"OBJECT_NAME":"XIWANG-1 (HOPE-1)","OBJECT_ID":"2009-072B","EPOCH":"2026-03-15T05:35:25.694592","MEAN_MOTION":13.16437182,"ECCENTRICITY":0.00081381,"INCLINATION":100.3917,"RA_OF_ASC_NODE":29.6098,"ARG_OF_PERICENTER":87.7801,"MEAN_ANOMALY":272.4244,"EPHEMERIS_TYPE":0,"CLASSIFICATION_TYPE":"U","NORAD_CAT_ID":36122,"ELEMENT_SET_NO":999,"REV_AT_EPOCH":78064,"BSTAR":0.0009052998,"MEAN_MOTION_DOT":3.01e-6,"MEAN_MOTION_DDOT":0},{"OBJECT_NAME":"O/OREOS (USA 219)","OBJECT_ID":"2010-062C","EPOCH":"2026-03-15T00:34:23.780640","MEAN_MOTION":14.93311159,"ECCENTRICITY":0.0016706,"INCLINATION":71.9705,"RA_OF_ASC_NODE":293.5681,"ARG_OF_PERICENTER":247.6425,"MEAN_ANOMALY":112.2976,"EPHEMERIS_TYPE":0,"CLASSIFICATION_TYPE":"U","NORAD_CAT_ID":37224,"ELEMENT_SET_NO":999,"REV_AT_EPOCH":10258,"BSTAR":0.00027482369,"MEAN_MOTION_DOT":2.826e-5,"MEAN_MOTION_DDOT":0},{"OBJECT_NAME":"JUGNU","OBJECT_ID":"2011-058B","EPOCH":"2026-03-14T13:42:49.843008","MEAN_MOTION":14.13743579,"ECCENTRICITY":0.00187262,"INCLINATION":19.9595,"RA_OF_ASC_NODE":163.2385,"ARG_OF_PERICENTER":111.0167,"MEAN_ANOMALY":277.7923,"EPHEMERIS_TYPE":0,"CLASSIFICATION_TYPE":"U","NORAD_CAT_ID":37839,"ELEMENT_SET_NO":999,"REV_AT_EPOCH":74562,"BSTAR":0.0001283494,"MEAN_MOTION_DOT":5.13e-6,"MEAN_MOTION_DDOT":0},{"OBJECT_NAME":"SRMSAT","OBJECT_ID":"2011-058D","EPOCH":"2026-03-15T05:18:26.750016","MEAN_MOTION":14.11549976,"ECCENTRICITY":0.00117181,"INCLINATION":19.9715,"RA_OF_ASC_NODE":268.2252,"ARG_OF_PERICENTER":250.188,"MEAN_ANOMALY":266.5988,"EPHEMERIS_TYPE":0,"CLASSIFICATION_TYPE":"U","NORAD_CAT_ID":37841,"ELEMENT_SET_NO":999,"REV_AT_EPOCH":74452,"BSTAR":9.9436778e-5,"MEAN_MOTION_DOT":4.48e-6,"MEAN_MOTION_DDOT":0},{"OBJECT_NAME":"STRAND-1","OBJECT_ID":"2013-009E","EPOCH":"2026-03-15T01:33:13.461696","MEAN_MOTION":14.37100135,"ECCENTRICITY":0.00093066,"INCLINATION":98.3893,"RA_OF_ASC_NODE":256.6229,"ARG_OF_PERICENTER":146.5378,"MEAN_ANOMALY":213.6399,"EPHEMERIS_TYPE":0,"CLASSIFICATION_TYPE":"U","NORAD_CAT_ID":39090,"ELEMENT_SET_NO":999,"REV_AT_EPOCH":68354,"BSTAR":0.00015301379,"MEAN_MOTION_DOT":4.12e-6,"MEAN_MOTION_DDOT":0},{"OBJECT_NAME":"ZACUBE-1 (TSHEPISOSAT)","OBJECT_ID":"2013-066B","EPOCH":"2026-03-14T20:46:13.211616","MEAN_MOTION":15.00383064,"ECCENTRICITY":0.00431385,"INCLINATION":97.8157,"RA_OF_ASC_NODE":35.7145,"ARG_OF_PERICENTER":202.759,"MEAN_ANOMALY":157.1722,"EPHEMERIS_TYPE":0,"CLASSIFICATION_TYPE":"U","NORAD_CAT_ID":39417,"ELEMENT_SET_NO":999,"REV_AT_EPOCH":66658,"BSTAR":0.00047003712,"MEAN_MOTION_DOT":5.958e-5,"MEAN_MOTION_DDOT":0},{"OBJECT_NAME":"GOMX-1","OBJECT_ID":"2013-066Q","EPOCH":"2026-03-15T06:33:53.722944","MEAN_MOTION":14.6912197,"ECCENTRICITY":0.01298881,"INCLINATION":97.6571,"RA_OF_ASC_NODE":280.6304,"ARG_OF_PERICENTER":19.6926,"MEAN_ANOMALY":340.9229,"EPHEMERIS_TYPE":0,"CLASSIFICATION_TYPE":"U","NORAD_CAT_ID":39430,"ELEMENT_SET_NO":999,"REV_AT_EPOCH":65612,"BSTAR":0.00036138948,"MEAN_MOTION_DOT":2.366e-5,"MEAN_MOTION_DDOT":0},{"OBJECT_NAME":"CUBEBUG-2 (LO-74)","OBJECT_ID":"2013-066AA","EPOCH":"2026-03-15T03:01:51.491424","MEAN_MOTION":14.93028944,"ECCENTRICITY":0.00579374,"INCLINATION":97.8812,"RA_OF_ASC_NODE":22.8074,"ARG_OF_PERICENTER":341.0084,"MEAN_ANOMALY":18.8974,"EPHEMERIS_TYPE":0,"CLASSIFICATION_TYPE":"U","NORAD_CAT_ID":39440,"ELEMENT_SET_NO":999,"REV_AT_EPOCH":66295,"BSTAR":0.00065006022,"MEAN_MOTION_DOT":6.928e-5,"MEAN_MOTION_DDOT":0},{"OBJECT_NAME":"FUNCUBE-1 (AO-73)","OBJECT_ID":"2013-066AE","EPOCH":"2026-03-15T03:34:01.591392","MEAN_MOTION":15.08016483,"ECCENTRICITY":0.00378799,"INCLINATION":97.8183,"RA_OF_ASC_NODE":43.78,"ARG_OF_PERICENTER":160.7434,"MEAN_ANOMALY":199.5236,"EPHEMERIS_TYPE":0,"CLASSIFICATION_TYPE":"U","NORAD_CAT_ID":39444,"ELEMENT_SET_NO":999,"REV_AT_EPOCH":66548,"BSTAR":0.00063025545,"MEAN_MOTION_DOT":9.801e-5,"MEAN_MOTION_DDOT":0}]
